{
  "type": "FeatureCollection",
  "features": [
    {
      "type": "Feature",
      "properties": {
        "norad_id": 33835,
        "name": "COSMOS 2251 DEB",
        "group": "cosmos-2251-debris",
        "lat": 64.28935688230025,
        "lon": -123.27110196449219,
        "alt_km": 647.6539773358581,
        "timestamp": "2025-12-16T21:38:57.567976+00:00",
        "meta_object_name": "COSMOS 2251 DEB",
        "meta_object_id": "1993-036CC",
        "meta_epoch": "2025-12-16T08:16:07.341888",
        "meta_mean_motion": 14.62289007,
        "meta_eccentricity": 0.00543923,
        "meta_inclination": 74.057,
        "meta_ra_of_asc_node": 94.214,
        "meta_arg_of_pericenter": 146.7189,
        "meta_mean_anomaly": 270.2911,
        "meta_ephemeris_type": 0,
        "meta_classification_type": "U",
        "meta_norad_cat_id": 33835,
        "meta_element_set_no": 999,
        "meta_rev_at_epoch": 88842,
        "meta_bstar": 0.00070468713,
        "meta_mean_motion_dot": 3.603e-05,
        "meta_mean_motion_ddot": 0,
        "tle_line1": "1 33835U 93036CC  25350.34452942  .00003603  00000+0  70469-3 0  9991",
        "tle_line2": "2 33835  74.0570  94.2140 0054392 146.7189 270.2911 14.62289007888427"
      },
      "geometry": {
        "type": "Point",
        "coordinates": [
          -123.27110196449219,
          64.28935688230025
        ]
      }
    },
    {
      "type": "Feature",
      "properties": {
        "norad_id": 33836,
        "name": "COSMOS 2251 DEB",
        "group": "cosmos-2251-debris",
        "lat": 32.970873064272915,
        "lon": -98.53373158091597,
        "alt_km": 621.947783426277,
        "timestamp": "2025-12-16T21:38:57.567987+00:00",
        "meta_object_name": "COSMOS 2251 DEB",
        "meta_object_id": "1993-036CD",
        "meta_epoch": "2025-12-16T04:19:16.483296",
        "meta_mean_motion": 14.79684895,
        "meta_eccentricity": 0.00226139,
        "meta_inclination": 73.9974,
        "meta_ra_of_asc_node": 252.1614,
        "meta_arg_of_pericenter": 104.0425,
        "meta_mean_anomaly": 46.3518,
        "meta_ephemeris_type": 0,
        "meta_classification_type": "U",
        "meta_norad_cat_id": 33836,
        "meta_element_set_no": 999,
        "meta_rev_at_epoch": 64139,
        "meta_bstar": 0.00084335063,
        "meta_mean_motion_dot": 6.332e-05,
        "meta_mean_motion_ddot": 0,
        "tle_line1": "1 33836U 93036CD  25350.18005189  .00006332  00000+0  84335-3 0  9990",
        "tle_line2": "2 33836  73.9974 252.1614 0022613 104.0425  46.3518 14.79684895641396"
      },
      "geometry": {
        "type": "Point",
        "coordinates": [
          -98.53373158091597,
          32.970873064272915
        ]
      }
    },
    {
      "type": "Feature",
      "properties": {
        "norad_id": 33837,
        "name": "COSMOS 2251 DEB",
        "group": "cosmos-2251-debris",
        "lat": -55.98518451723968,
        "lon": 22.624505249261258,
        "alt_km": 708.325073466076,
        "timestamp": "2025-12-16T21:38:57.567997+00:00",
        "meta_object_name": "COSMOS 2251 DEB",
        "meta_object_id": "1993-036CE",
        "meta_epoch": "2025-12-16T07:01:38.002080",
        "meta_mean_motion": 14.50709411,
        "meta_eccentricity": 0.00358929,
        "meta_inclination": 74.0129,
        "meta_ra_of_asc_node": 48.9089,
        "meta_arg_of_pericenter": 270.0529,
        "meta_mean_anomaly": 89.6518,
        "meta_ephemeris_type": 0,
        "meta_classification_type": "U",
        "meta_norad_cat_id": 33837,
        "meta_element_set_no": 999,
        "meta_rev_at_epoch": 88847,
        "meta_bstar": 0.00024479379,
        "meta_mean_motion_dot": 9.41e-06,
        "meta_mean_motion_ddot": 0,
        "tle_line1": "1 33837U 93036CE  25350.29280095  .00000941  00000+0  24479-3 0  9997",
        "tle_line2": "2 33837  74.0129  48.9089 0035892 270.0529  89.6518 14.50709411888473"
      },
      "geometry": {
        "type": "Point",
        "coordinates": [
          22.624505249261258,
          -55.98518451723968
        ]
      }
    },
    {
      "type": "Feature",
      "properties": {
        "norad_id": 33838,
        "name": "COSMOS 2251 DEB",
        "group": "cosmos-2251-debris",
        "lat": 40.40816707042218,
        "lon": -52.085710065300894,
        "alt_km": 738.7893410480046,
        "timestamp": "2025-12-16T21:38:57.568007+00:00",
        "meta_object_name": "COSMOS 2251 DEB",
        "meta_object_id": "1993-036CF",
        "meta_epoch": "2025-12-16T05:15:23.003136",
        "meta_mean_motion": 14.4837394,
        "meta_eccentricity": 0.00274579,
        "meta_inclination": 74.0359,
        "meta_ra_of_asc_node": 143.2976,
        "meta_arg_of_pericenter": 264.662,
        "meta_mean_anomaly": 273.0984,
        "meta_ephemeris_type": 0,
        "meta_classification_type": "U",
        "meta_norad_cat_id": 33838,
        "meta_element_set_no": 999,
        "meta_rev_at_epoch": 88619,
        "meta_bstar": 0.00039694233,
        "meta_mean_motion_dot": 1.465e-05,
        "meta_mean_motion_ddot": 0,
        "tle_line1": "1 33838U 93036CF  25350.21901624  .00001465  00000+0  39694-3 0  9995",
        "tle_line2": "2 33838  74.0359 143.2976 0027457 264.6620 273.0984 14.48373940886196"
      },
      "geometry": {
        "type": "Point",
        "coordinates": [
          -52.085710065300894,
          40.40816707042218
        ]
      }
    },
    {
      "type": "Feature",
      "properties": {
        "norad_id": 33839,
        "name": "COSMOS 2251 DEB",
        "group": "cosmos-2251-debris",
        "lat": -52.4365841794293,
        "lon": 176.6340010105292,
        "alt_km": 625.6171075802913,
        "timestamp": "2025-12-16T21:38:57.568018+00:00",
        "meta_object_name": "COSMOS 2251 DEB",
        "meta_object_id": "1993-036CG",
        "meta_epoch": "2025-12-16T01:08:06.555840",
        "meta_mean_motion": 14.64428537,
        "meta_eccentricity": 0.00852024,
        "meta_inclination": 74.0379,
        "meta_ra_of_asc_node": 200.1245,
        "meta_arg_of_pericenter": 311.4317,
        "meta_mean_anomaly": 168.814,
        "meta_ephemeris_type": 0,
        "meta_classification_type": "U",
        "meta_norad_cat_id": 33839,
        "meta_element_set_no": 999,
        "meta_rev_at_epoch": 89628,
        "meta_bstar": 0.00020265974,
        "meta_mean_motion_dot": 1.096e-05,
        "meta_mean_motion_ddot": 0,
        "tle_line1": "1 33839U 93036CG  25350.04729810  .00001096  00000+0  20266-3 0  9997",
        "tle_line2": "2 33839  74.0379 200.1245 0085202 311.4317 168.8140 14.64428537896284"
      },
      "geometry": {
        "type": "Point",
        "coordinates": [
          176.6340010105292,
          -52.4365841794293
        ]
      }
    },
    {
      "type": "Feature",
      "properties": {
        "norad_id": 33841,
        "name": "COSMOS 2251 DEB",
        "group": "cosmos-2251-debris",
        "lat": -2.377793904125397,
        "lon": -90.30206159336879,
        "alt_km": 753.8255649998773,
        "timestamp": "2025-12-16T21:38:57.568028+00:00",
        "meta_object_name": "COSMOS 2251 DEB",
        "meta_object_id": "1993-036CJ",
        "meta_epoch": "2025-12-16T05:43:55.968672",
        "meta_mean_motion": 14.37866051,
        "meta_eccentricity": 0.0020686,
        "meta_inclination": 74.0378,
        "meta_ra_of_asc_node": 271.5995,
        "meta_arg_of_pericenter": 351.3438,
        "meta_mean_anomaly": 174.6482,
        "meta_ephemeris_type": 0,
        "meta_classification_type": "U",
        "meta_norad_cat_id": 33841,
        "meta_element_set_no": 999,
        "meta_rev_at_epoch": 88164,
        "meta_bstar": 0.00022221468,
        "meta_mean_motion_dot": 6.46e-06,
        "meta_mean_motion_ddot": 0,
        "tle_line1": "1 33841U 93036CJ  25350.23884223  .00000646  00000+0  22221-3 0  9994",
        "tle_line2": "2 33841  74.0378 271.5995 0020686 351.3438 174.6482 14.37866051881647"
      },
      "geometry": {
        "type": "Point",
        "coordinates": [
          -90.30206159336879,
          -2.377793904125397
        ]
      }
    },
    {
      "type": "Feature",
      "properties": {
        "norad_id": 33842,
        "name": "COSMOS 2251 DEB",
        "group": "cosmos-2251-debris",
        "lat": -33.720687423941136,
        "lon": -159.0906437920219,
        "alt_km": 721.8213433986384,
        "timestamp": "2025-12-16T21:38:57.568039+00:00",
        "meta_object_name": "COSMOS 2251 DEB",
        "meta_object_id": "1993-036CK",
        "meta_epoch": "2025-12-16T01:50:25.947744",
        "meta_mean_motion": 14.42704181,
        "meta_eccentricity": 0.00473945,
        "meta_inclination": 74.0323,
        "meta_ra_of_asc_node": 213.458,
        "meta_arg_of_pericenter": 320.1087,
        "meta_mean_anomaly": 39.6589,
        "meta_ephemeris_type": 0,
        "meta_classification_type": "U",
        "meta_norad_cat_id": 33842,
        "meta_element_set_no": 999,
        "meta_rev_at_epoch": 88385,
        "meta_bstar": 0.00026292826,
        "meta_mean_motion_dot": 8.6e-06,
        "meta_mean_motion_ddot": 0,
        "tle_line1": "1 33842U 93036CK  25350.07668921  .00000860  00000+0  26293-3 0  9993",
        "tle_line2": "2 33842  74.0323 213.4580 0047394 320.1087  39.6589 14.42704181883856"
      },
      "geometry": {
        "type": "Point",
        "coordinates": [
          -159.0906437920219,
          -33.720687423941136
        ]
      }
    }
  ]
}